OBJECT_NAME,OBJECT_ID,EPOCH,MEAN_MOTION,ECCENTRICITY,INCLINATION,RA_OF_ASC_NODE,ARG_OF_PERICENTER,MEAN_ANOMALY,EPHEMERIS_TYPE,CLASSIFICATION_TYPE,NORAD_CAT_ID,ELEMENT_SET_NO,REV_AT_EPOCH,BSTAR,MEAN_MOTION_DOT,MEAN_MOTION_DDOT
IRIDIUM 138,2017-083B,2024-12-31T20:14:07.007424,14.34218197,.0001905,86.3978,184.1905,71.2292,288.9110,0,U,43071,999,36783,.19024E-4,.73E-6,0
IRIDIUM 116,2017-083C,2024-12-31T17:47:59.085312,14.34217331,.0001945,86.3992,184.5327,97.2558,262.8859,0,U,43072,999,36785,-.18286E-4,-.31E-6,0
IRIDIUM 130,2017-083D,2025-01-01T01:24:39.011904,14.34217291,.0001699,86.4002,184.6236,95.0122,265.1268,0,U,43073,999,36784,-.30924E-4,-.67E-6,0
IRIDIUM 151,2017-083E,2024-12-31T18:06:14.611392,14.34216743,.0002027,86.3995,184.5732,92.5499,267.5929,0,U,43074,999,36782,-.19692E-4,-.35E-6,0
IRIDIUM 134,2017-083F,2024-12-31T20:41:30.948000,14.34216882,.00018,86.3996,184.5289,94.9554,265.1847,0,U,43075,999,36780,-.28586E-4,-.6E-6,0
IRIDIUM 137,2017-083G,2024-12-31T17:38:51.113184,14.34217433,.000232,86.3998,184.6636,99.9419,260.2039,0,U,43076,999,36785,-.1321E-4,-.17E-6,0
IRIDIUM 141,2017-083H,2024-12-31T19:10:11.015040,14.34217847,.0001833,86.3988,184.4983,82.0988,278.0416,0,U,43077,999,36786,.34259E-5,.29E-6,0
IRIDIUM 153,2017-083J,2024-12-31T18:01:18.977376,14.34215884,.0001792,86.3999,153.0449,75.2434,284.8960,0,U,43078,999,36896,.10799E-3,.322E-5,0
IRIDIUM 131,2017-083K,2024-12-31T13:50:30.724800,14.34216301,.0001955,86.3999,184.7413,86.6981,273.4438,0,U,43079,999,36776,-.53289E-4,-.129E-5,0
IRIDIUM 144,2018-030A,2024-12-31T18:10:26.978880,14.34222327,.0001842,86.3995,152.9836,97.6848,262.4556,0,U,43249,999,35382,.31424E-3,.9E-5,0
IRIDIUM 149,2018-030B,2024-12-31T20:00:02.971872,14.34223287,.0002136,86.3997,152.9250,96.7689,263.3750,0,U,43250,999,35385,.34668E-3,.991E-5,0
IRIDIUM 157,2018-030C,2024-12-31T18:46:59.217312,14.34217506,.0002197,86.3995,152.9874,92.0861,268.0587,0,U,43251,999,35382,.10321E-3,.309E-5,0
IRIDIUM 140,2018-030D,2024-12-31T17:33:55.279584,14.34214535,.0001811,86.4000,153.0230,97.0759,263.0642,0,U,43252,999,35387,-.45743E-4,-.108E-5,0
IRIDIUM 145,2018-030E,2024-12-31T15:35:10.288896,14.34216330,.000198,86.3997,153.0304,104.4836,255.6580,0,U,43253,999,35379,.29277E-3,.84E-5,0
IRIDIUM 146,2018-030F,2024-12-31T16:48:15.407712,14.34217160,.0001851,86.4000,153.0234,105.3405,254.7995,0,U,43254,999,35381,-.96785E-5,-.7E-7,0
IRIDIUM 148,2018-030G,2024-12-31T21:03:59.215680,14.34217652,.0002044,86.3999,152.9840,98.7943,261.3485,0,U,43255,999,35387,.12609E-3,.373E-5,0
IRIDIUM 142,2018-030H,2024-12-31T10:15:31.228128,14.34219130,.0002147,86.3994,153.0804,105.5897,254.5536,0,U,43256,999,35377,.20827E-3,.603E-5,0
IRIDIUM 150,2018-030J,2024-12-31T21:13:07.223232,14.34217753,.0001916,86.3998,152.9888,100.6344,259.5068,0,U,43257,999,35386,.20478E-3,.593E-5,0
IRIDIUM 143,2018-030K,2024-12-31T10:42:54.906912,14.34223038,.0001886,86.4000,153.2432,109.0865,251.0535,0,U,43258,999,35373,.33615E-3,.961E-5,0
IRIDIUM 161,2018-047C,2024-12-31T13:40:04.000800,14.43286517,.0002253,86.4494,311.0440,86.2841,273.8618,0,U,43478,999,34831,.37261E-3,.1274E-4,0
IRIDIUM 152,2018-047D,2024-12-31T16:45:30.121056,14.34219300,.0002093,86.3970,310.8497,82.6003,277.5431,0,U,43479,999,34616,.14574E-3,.428E-5,0
IRIDIUM 147,2018-047E,2024-12-31T21:56:02.045184,14.34221231,.0002371,86.3974,310.7555,77.2887,282.8574,0,U,43480,999,34619,.22664E-3,.655E-5,0
IRIDIUM 110,2018-047F,2025-01-01T03:06:34.221600,14.34217890,.000205,86.3975,310.7433,72.9316,287.2104,0,U,43481,999,34621,.60697E-4,.19E-5,0
IRIDIUM 162,2018-047G,2024-12-31T13:30:58.623264,14.43290009,.0001971,86.4495,310.9441,79.5079,280.6344,0,U,43482,999,34830,.40058E-3,.1368E-4,0
IRIDIUM 160,2018-061A,2024-12-31T19:06:42.299424,14.34217436,.0002486,86.3942,279.2420,82.1639,277.9839,0,U,43569,999,33706,.33825E-3,.967E-5,0
IRIDIUM 166,2018-061B,2024-12-31T14:41:50.413056,14.34218072,.000189,86.3966,279.2769,90.9620,269.1792,0,U,43570,999,33706,.47626E-4,.153E-5,0
IRIDIUM 158,2018-061C,2024-12-31T15:36:38.321856,14.34218875,.0001853,86.3967,279.2706,79.4249,280.7156,0,U,43571,999,33703,.14311E-3,.421E-5,0
IRIDIUM 165,2018-061D,2024-12-31T11:11:46.453632,14.34217168,.0002146,86.3963,279.3836,84.3289,275.8152,0,U,43572,999,33703,-.30373E-4,-.65E-6,0
IRIDIUM 155,2018-061E,2024-12-31T15:18:21.218976,14.34226868,.0001765,86.3964,279.2076,86.6897,273.4501,0,U,43573,999,33702,.35899E-3,.1025E-4,0
IRIDIUM 154,2018-061F,2024-12-31T14:50:58.138944,14.34221268,.0002198,86.3969,279.3227,83.1999,276.9447,0,U,43574,999,33707,.34613E-3,.989E-5,0
IRIDIUM 163,2018-061G,2024-12-31T19:24:58.350816,14.34219521,.0001994,86.3964,279.1754,81.0444,279.0977,0,U,43575,999,33707,.14506E-3,.426E-5,0
