IRIDIUM 138             
1 43071U 17083B   24366.84313666  .00000073  00000+0  19024-4 0  9991
2 43071  86.3978 184.1905 0001905  71.2292 288.9110 14.34218197367830
IRIDIUM 116             
1 43072U 17083C   24366.74165608 -.00000031  00000+0 -18286-4 0  9997
2 43072  86.3992 184.5327 0001945  97.2558 262.8859 14.34217331367858
IRIDIUM 130             
1 43073U 17083D   25001.05878486 -.00000067  00000+0 -30924-4 0  9996
2 43073  86.4002 184.6236 0001699  95.0122 265.1268 14.34217291367845
IRIDIUM 151             
1 43074U 17083E   24366.75433578 -.00000035  00000+0 -19692-4 0  9990
2 43074  86.3995 184.5732 0002027  92.5499 267.5929 14.34216743367820
IRIDIUM 134             
1 43075U 17083F   24366.86216375 -.00000060  00000+0 -28586-4 0  9997
2 43075  86.3996 184.5289 0001800  94.9554 265.1847 14.34216882367800
IRIDIUM 137             
1 43076U 17083G   24366.73531381 -.00000017  00000+0 -13210-4 0  9991
2 43076  86.3998 184.6636 0002320  99.9419 260.2039 14.34217433367850
IRIDIUM 141             
1 43077U 17083H   24366.79873860  .00000029  00000+0  34259-5 0  9997
2 43077  86.3988 184.4983 0001833  82.0988 278.0416 14.34217847367861
IRIDIUM 153             
1 43078U 17083J   24366.75091409  .00000322  00000+0  10799-3 0  9992
2 43078  86.3999 153.0449 0001792  75.2434 284.8960 14.34215884368967
IRIDIUM 131             
1 43079U 17083K   24366.57674450 -.00000129  00000+0 -53289-4 0  9995
2 43079  86.3999 184.7413 0001955  86.6981 273.4438 14.34216301367760
IRIDIUM 144             
1 43249U 18030A   24366.75725670  .00000900  00000+0  31424-3 0  9999
2 43249  86.3995 152.9836 0001842  97.6848 262.4556 14.34222327353826
IRIDIUM 149             
1 43250U 18030B   24366.83336773  .00000991  00000+0  34668-3 0  9995
2 43250  86.3997 152.9250 0002136  96.7689 263.3750 14.34223287353855
IRIDIUM 157             
1 43251U 18030C   24366.78262983  .00000309  00000+0  10321-3 0  9994
2 43251  86.3995 152.9874 0002197  92.0861 268.0587 14.34217506353828
IRIDIUM 140             
1 43252U 18030D   24366.73188981 -.00000108  00000+0 -45743-4 0  9991
2 43252  86.4000 153.0230 0001811  97.0759 263.0642 14.34214535353879
IRIDIUM 145             
1 43253U 18030E   24366.64942464  .00000840  00000+0  29277-3 0  9990
2 43253  86.3997 153.0304 0001980 104.4836 255.6580 14.34216330353796
IRIDIUM 146             
1 43254U 18030F   24366.70017833 -.00000007  00000+0 -96785-5 0  9998
2 43254  86.4000 153.0234 0001851 105.3405 254.7995 14.34217160353819
IRIDIUM 148             
1 43255U 18030G   24366.87776870  .00000373  00000+0  12609-3 0  9995
2 43255  86.3999 152.9840 0002044  98.7943 261.3485 14.34217652353874
IRIDIUM 142             
1 43256U 18030H   24366.42744477  .00000603  00000+0  20827-3 0  9992
2 43256  86.3994 153.0804 0002147 105.5897 254.5536 14.34219130353774
IRIDIUM 150             
1 43257U 18030J   24366.88411138  .00000593  00000+0  20478-3 0  9998
2 43257  86.3998 152.9888 0001916 100.6344 259.5068 14.34217753353869
IRIDIUM 143             
1 43258U 18030K   24366.44646883  .00000961  00000+0  33615-3 0  9994
2 43258  86.4000 153.2432 0001886 109.0865 251.0535 14.34223038353736
IRIDIUM 161             
1 43478U 18047C   24366.56949075  .00001274  00000+0  37261-3 0  9997
2 43478  86.4494 311.0440 0002253  86.2841 273.8618 14.43286517348312
IRIDIUM 152             
1 43479U 18047D   24366.69826529  .00000428  00000+0  14574-3 0  9992
2 43479  86.3970 310.8497 0002093  82.6003 277.5431 14.34219300346163
IRIDIUM 147             
1 43480U 18047E   24366.91391256  .00000655  00000+0  22664-3 0  9994
2 43480  86.3974 310.7555 0002371  77.2887 282.8574 14.34221231346198
IRIDIUM 110             
1 43481U 18047F   25001.12956275  .00000190  00000+0  60697-4 0  9996
2 43481  86.3975 310.7433 0002050  72.9316 287.2104 14.34217890346215
IRIDIUM 162             
1 43482U 18047G   24366.56317851  .00001368  00000+0  40058-3 0  9995
2 43482  86.4495 310.9441 0001971  79.5079 280.6344 14.43290009348303
IRIDIUM 160             
1 43569U 18061A   24366.79632291  .00000967  00000+0  33825-3 0  9998
2 43569  86.3942 279.2420 0002486  82.1639 277.9839 14.34217436337065
IRIDIUM 166             
1 43570U 18061B   24366.61238904  .00000153  00000+0  47626-4 0  9996
2 43570  86.3966 279.2769 0001890  90.9620 269.1792 14.34218072337062
IRIDIUM 158             
1 43571U 18061C   24366.65044354  .00000421  00000+0  14311-3 0  9997
2 43571  86.3967 279.2706 0001853  79.4249 280.7156 14.34218875337034
IRIDIUM 165             
1 43572U 18061D   24366.46650988 -.00000065  00000+0 -30373-4 0  9996
2 43572  86.3963 279.3836 0002146  84.3289 275.8152 14.34217168337036
IRIDIUM 155             
1 43573U 18061E   24366.63774559  .00001025  00000+0  35899-3 0  9999
2 43573  86.3964 279.2076 0001765  86.6897 273.4501 14.34226868337027
IRIDIUM 154             
1 43574U 18061F   24366.61872846  .00000989  00000+0  34613-3 0  9997
2 43574  86.3969 279.3227 0002198  83.1999 276.9447 14.34221268337079
IRIDIUM 163             
1 43575U 18061G   24366.80900869  .00000426  00000+0  14506-3 0  9991
2 43575  86.3964 279.1754 0001994  81.0444 279.0977 14.34219521337074
